[{"OBJECT_NAME":"STARLINK-36283","OBJECT_ID":"2025-304F","EPOCH":"2026-03-09T17:30:06.958080","MEAN_MOTION":14.98314255,"ECCENTRICITY":0.00028288,"INCLINATION":70.002,"RA_OF_ASC_NODE":174.2344,"ARG_OF_PERICENTER":272.5628,"MEAN_ANOMALY":87.5207,"EPHEMERIS_TYPE":0,"CLASSIFICATION_TYPE":"U","NORAD_CAT_ID":67197,"ELEMENT_SET_NO":999,"REV_AT_EPOCH":1389,"BSTAR":3.125774e-6,"MEAN_MOTION_DOT":-5.6e-7,"MEAN_MOTION_DDOT":0},{"OBJECT_NAME":"CZ-6A DEB","OBJECT_ID":"2022-151HP","EPOCH":"2026-03-09T17:44:02.457312","MEAN_MOTION":14.86205638,"ECCENTRICITY":0.00516913,"INCLINATION":98.6505,"RA_OF_ASC_NODE":139.989,"ARG_OF_PERICENTER":207.0218,"MEAN_ANOMALY":152.8303,"EPHEMERIS_TYPE":0,"CLASSIFICATION_TYPE":"U","NORAD_CAT_ID":54487,"ELEMENT_SET_NO":999,"REV_AT_EPOCH":17416,"BSTAR":0.0036752124,"MEAN_MOTION_DOT":0.00033148,"MEAN_MOTION_DDOT":0}]
